MALLIGYONG-1            
1 58400U 23179A   24185.95597815  .00006273  00000+0  28354-3 0  9990
2 58400  97.4026  72.5208 0003526 115.2547 244.9055 15.21288361 34274
